[{"OBJECT_NAME":"STARLINK-34683","OBJECT_ID":"2025-152R","EPOCH":"2026-03-09T14:09:48.299904","MEAN_MOTION":15.05649619,"ECCENTRICITY":0.0002136,"INCLINATION":97.6013,"RA_OF_ASC_NODE":285.4335,"ARG_OF_PERICENTER":79.2546,"MEAN_ANOMALY":280.8921,"EPHEMERIS_TYPE":0,"CLASSIFICATION_TYPE":"U","NORAD_CAT_ID":64857,"ELEMENT_SET_NO":999,"REV_AT_EPOCH":3540,"BSTAR":0.00021944,"MEAN_MOTION_DOT":3.107e-5,"MEAN_MOTION_DDOT":0},{"OBJECT_NAME":"ICON","OBJECT_ID":"2019-068A","EPOCH":"2026-03-09T22:35:01.599072","MEAN_MOTION":15.06276737,"ECCENTRICITY":0.00134076,"INCLINATION":26.9847,"RA_OF_ASC_NODE":325.9297,"ARG_OF_PERICENTER":187.0145,"MEAN_ANOMALY":173.0229,"EPHEMERIS_TYPE":0,"CLASSIFICATION_TYPE":"U","NORAD_CAT_ID":44628,"ELEMENT_SET_NO":999,"REV_AT_EPOCH":35105,"BSTAR":0.00030799545,"MEAN_MOTION_DOT":4.879e-5,"MEAN_MOTION_DDOT":0}]
